{"type":"FeatureCollection","features":[
{"type":"Feature","geometry":{"type":"Point","coordinates":[2.2683789,48.8393245]},"properties":{"id":"pont-garigliano","name":"Pont du Garigliano","set":"BRIDGES","radius":60}},
{"type":"Feature","geometry":{"type":"Point","coordinates":[2.2755792,48.8466609]},"properties":{"id":"pont-mirabeau","name":"Pont Mirabeau","set":"BRIDGES","radius":60}},
{"type":"Feature","geometry":{"type":"Point","coordinates":[2.2795410,48.8506222]},"properties":{"id":"pont-grenelle","name":"Pont de Grenelle","set":"BRIDGES","radius":60}},
{"type":"Feature","geometry":{"type":"Point","coordinates":[2.2828574,48.8526631]},"properties":{"id":"pont-rouelle","name":"Pont Rouelle","set":"BRIDGES","radius":60}},
{"type":"Feature","geometry":{"type":"Point","coordinates":[2.2875819,48.8556731]},"properties":{"id":"pont-bir-hakeim","name":"Pont de Bir-Hakeim","set":"BRIDGES","radius":60}},
{"type":"Feature","geometry":{"type":"Point","coordinates":[2.2920733,48.8598089]},"properties":{"id":"pont-iena","name":"Pont d'Iéna","set":"BRIDGES","radius":60}},
{"type":"Feature","geometry":{"type":"Point","coordinates":[2.2969296,48.8625611]},"properties":{"id":"passerelle-debilly","name":"Passerelle Debilly","set":"BRIDGES","radius":60}},
{"type":"Feature","geometry":{"type":"Point","coordinates":[2.3018510,48.8634373]},"properties":{"id":"pont-alma","name":"Pont de l'Alma","set":"BRIDGES","radius":60}},
{"type":"Feature","geometry":{"type":"Point","coordinates":[2.3103980,48.8635645]},"properties":{"id":"pont-invalides","name":"Pont des Invalides","set":"BRIDGES","radius":60}},
{"type":"Feature","geometry":{"type":"Point","coordinates":[2.3135438,48.8636423]},"properties":{"id":"pont-alexandre-iii","name":"Pont Alexandre-III","set":"BRIDGES","radius":60}},
{"type":"Feature","geometry":{"type":"Point","coordinates":[2.3195916,48.8633752]},"properties":{"id":"pont-concorde","name":"Pont de la Concorde","set":"BRIDGES","radius":60}},
{"type":"Feature","geometry":{"type":"Point","coordinates":[2.3246884,48.8617932]},"properties":{"id":"passerelle-senghor","name":"Passerelle Léopold-Sédar-Senghor","set":"BRIDGES","radius":60}},
{"type":"Feature","geometry":{"type":"Point","coordinates":[2.3299214,48.8601291]},"properties":{"id":"pont-royal","name":"Pont Royal","set":"BRIDGES","radius":60}},
{"type":"Feature","geometry":{"type":"Point","coordinates":[2.3329370,48.8593874]},"properties":{"id":"pont-carrousel","name":"Pont du Carrousel","set":"BRIDGES","radius":60}},
{"type":"Feature","geometry":{"type":"Point","coordinates":[2.3375444,48.8584388]},"properties":{"id":"pont-des-arts","name":"Pont des Arts","set":"BRIDGES","radius":60}},
{"type":"Feature","geometry":{"type":"Point","coordinates":[2.3421290,48.8580705]},"properties":{"id":"pont-neuf","name":"Pont Neuf","set":"BRIDGES","radius":60}},
{"type":"Feature","geometry":{"type":"Point","coordinates":[2.3446313,48.8540490]},"properties":{"id":"pont-saint-michel","name":"Pont Saint-Michel","set":"BRIDGES","radius":60}},
{"type":"Feature","geometry":{"type":"Point","coordinates":[2.3469586,48.8533057]},"properties":{"id":"petit-pont","name":"Petit-Pont – Cardinal-Lustiger","set":"BRIDGES","radius":60}},
{"type":"Feature","geometry":{"type":"Point","coordinates":[2.3484428,48.8525949]},"properties":{"id":"pont-au-double","name":"Pont au Double","set":"BRIDGES","radius":60}},
{"type":"Feature","geometry":{"type":"Point","coordinates":[2.3467772,48.8567023]},"properties":{"id":"pont-au-change","name":"Pont au Change","set":"BRIDGES","radius":60}},
{"type":"Feature","geometry":{"type":"Point","coordinates":[2.3486119,48.8561677]},"properties":{"id":"pont-notre-dame","name":"Pont Notre-Dame","set":"BRIDGES","radius":60}},
{"type":"Feature","geometry":{"type":"Point","coordinates":[2.3506034,48.8555251]},"properties":{"id":"pont-arcole","name":"Pont d'Arcole","set":"BRIDGES","radius":60}},
{"type":"Feature","geometry":{"type":"Point","coordinates":[2.3515429,48.8515132]},"properties":{"id":"pont-archeveche","name":"Pont de l'Archevêché","set":"BRIDGES","radius":60}},
{"type":"Feature","geometry":{"type":"Point","coordinates":[2.3527682,48.8527674]},"properties":{"id":"pont-saint-louis","name":"Pont Saint-Louis","set":"BRIDGES","radius":60}},
{"type":"Feature","geometry":{"type":"Point","coordinates":[2.3544268,48.8538440]},"properties":{"id":"pont-louis-philippe","name":"Pont Louis-Philippe","set":"BRIDGES","radius":60}},
{"type":"Feature","geometry":{"type":"Point","coordinates":[2.3554544,48.8506211]},"properties":{"id":"pont-tournelle","name":"Pont de la Tournelle","set":"BRIDGES","radius":60}},
{"type":"Feature","geometry":{"type":"Point","coordinates":[2.3574160,48.8528656]},"properties":{"id":"pont-marie","name":"Pont Marie","set":"BRIDGES","radius":60}},
{"type":"Feature","geometry":{"type":"Point","coordinates":[2.3579506,48.8497728]},"properties":{"id":"pont-sully","name":"Pont de Sully","set":"BRIDGES","radius":60}},
{"type":"Feature","geometry":{"type":"Point","coordinates":[2.3664352,48.8451922]},"properties":{"id":"pont-austerlitz","name":"Pont d'Austerlitz","set":"BRIDGES","radius":60}},
{"type":"Feature","geometry":{"type":"Point","coordinates":[2.3690362,48.8426158]},"properties":{"id":"pont-charles-de-gaulle","name":"Pont Charles-de-Gaulle","set":"BRIDGES","radius":60}},
{"type":"Feature","geometry":{"type":"Point","coordinates":[2.3749366,48.8379535]},"properties":{"id":"pont-bercy","name":"Pont de Bercy","set":"BRIDGES","radius":60}},
{"type":"Feature","geometry":{"type":"Point","coordinates":[2.3784107,48.8354489]},"properties":{"id":"passerelle-beauvoir","name":"Passerelle Simone-de-Beauvoir","set":"BRIDGES","radius":60}},
{"type":"Feature","geometry":{"type":"Point","coordinates":[2.3810601,48.8329352]},"properties":{"id":"pont-tolbiac","name":"Pont de Tolbiac","set":"BRIDGES","radius":60}},
{"type":"Feature","geometry":{"type":"Point","coordinates":[2.3870300,48.8278789]},"properties":{"id":"pont-national","name":"Pont National","set":"BRIDGES","radius":60}},
{"type":"Feature","geometry":{"type":"Point","coordinates":[2.3514544,48.8569657]},"properties":{"id":"hotel-de-ville","name":"Hôtel de Ville","set":"TOWNHALLS","radius":100}},
{"type":"Feature","geometry":{"type":"Point","coordinates":[2.3617728,48.8638756]},"properties":{"id":"mairie-paris-centre","name":"Mairie de Paris Centre","set":"TOWNHALLS","radius":75}},
{"type":"Feature","geometry":{"type":"Point","coordinates":[2.3443315,48.8460037]},"properties":{"id":"mairie-05","name":"Mairie du 5e","set":"TOWNHALLS","radius":75}},
{"type":"Feature","geometry":{"type":"Point","coordinates":[2.3322896,48.8506119]},"properties":{"id":"mairie-06","name":"Mairie du 6e","set":"TOWNHALLS","radius":75}},
{"type":"Feature","geometry":{"type":"Point","coordinates":[2.3204463,48.8573406]},"properties":{"id":"mairie-07","name":"Mairie du 7e","set":"TOWNHALLS","radius":75}},
{"type":"Feature","geometry":{"type":"Point","coordinates":[2.3173312,48.8773696]},"properties":{"id":"mairie-08","name":"Mairie du 8e","set":"TOWNHALLS","radius":75}},
{"type":"Feature","geometry":{"type":"Point","coordinates":[2.3412640,48.8724832]},"properties":{"id":"mairie-09","name":"Mairie du 9e","set":"TOWNHALLS","radius":75}},
{"type":"Feature","geometry":{"type":"Point","coordinates":[2.3577803,48.8718061]},"properties":{"id":"mairie-10","name":"Mairie du 10e","set":"TOWNHALLS","radius":75}},
{"type":"Feature","geometry":{"type":"Point","coordinates":[2.3792588,48.8587211]},"properties":{"id":"mairie-11","name":"Mairie du 11e","set":"TOWNHALLS","radius":75}},
{"type":"Feature","geometry":{"type":"Point","coordinates":[2.3882583,48.8408215]},"properties":{"id":"mairie-12","name":"Mairie du 12e","set":"TOWNHALLS","radius":75}},
{"type":"Feature","geometry":{"type":"Point","coordinates":[2.3555391,48.8325516]},"properties":{"id":"mairie-13","name":"Mairie du 13e","set":"TOWNHALLS","radius":75}},
{"type":"Feature","geometry":{"type":"Point","coordinates":[2.3268962,48.8330782]},"properties":{"id":"mairie-14","name":"Mairie du 14e","set":"TOWNHALLS","radius":75}},
{"type":"Feature","geometry":{"type":"Point","coordinates":[2.3002449,48.8413463]},"properties":{"id":"mairie-15","name":"Mairie du 15e","set":"TOWNHALLS","radius":75}},
{"type":"Feature","geometry":{"type":"Point","coordinates":[2.2764260,48.8636568]},"properties":{"id":"mairie-16","name":"Mairie du 16e","set":"TOWNHALLS","radius":75}},
{"type":"Feature","geometry":{"type":"Point","coordinates":[2.3220414,48.8845147]},"properties":{"id":"mairie-17","name":"Mairie du 17e","set":"TOWNHALLS","radius":75}},
{"type":"Feature","geometry":{"type":"Point","coordinates":[2.3444293,48.8920792]},"properties":{"id":"mairie-18","name":"Mairie du 18e","set":"TOWNHALLS","radius":75}},
{"type":"Feature","geometry":{"type":"Point","coordinates":[2.3819052,48.8830019]},"properties":{"id":"mairie-19","name":"Mairie du 19e","set":"TOWNHALLS","radius":75}},
{"type":"Feature","geometry":{"type":"Point","coordinates":[2.3994450,48.8653099]},"properties":{"id":"mairie-20","name":"Mairie du 20e","set":"TOWNHALLS","radius":75}},
{"type":"Feature","geometry":{"type":"Point","coordinates":[2.3401053,48.8665350]},"properties":{"id":"galerie-vivienne","name":"Galerie Vivienne","set":"PASSAGES","radius":60}},
{"type":"Feature","geometry":{"type":"Point","coordinates":[2.3388429,48.8663860]},"properties":{"id":"galerie-colbert","name":"Galerie Colbert","set":"PASSAGES","radius":60}},
{"type":"Feature","geometry":{"type":"Point","coordinates":[2.3416312,48.8710000]},"properties":{"id":"passage-panoramas","name":"Passage des Panoramas","set":"PASSAGES","radius":60}},
{"type":"Feature","geometry":{"type":"Point","coordinates":[2.3422538,48.8725858]},"properties":{"id":"passage-jouffroy","name":"Passage Jouffroy","set":"PASSAGES","radius":60}},
{"type":"Feature","geometry":{"type":"Point","coordinates":[2.3422679,48.8731203]},"properties":{"id":"passage-verdeau","name":"Passage Verdeau","set":"PASSAGES","radius":60}},
{"type":"Feature","geometry":{"type":"Point","coordinates":[2.3355368,48.8680308]},"properties":{"id":"passage-choiseul","name":"Passage Choiseul","set":"PASSAGES","radius":60}},
{"type":"Feature","geometry":{"type":"Point","coordinates":[2.3402006,48.8628215]},"properties":{"id":"galerie-vero-dodat","name":"Galerie Véro-Dodat","set":"PASSAGES","radius":60}},
{"type":"Feature","geometry":{"type":"Point","coordinates":[2.3493949,48.8647987]},"properties":{"id":"passage-grand-cerf","name":"Passage du Grand-Cerf","set":"PASSAGES","radius":60}},
{"type":"Feature","geometry":{"type":"Point","coordinates":[2.3502804,48.8678890]},"properties":{"id":"passage-caire","name":"Passage du Caire","set":"PASSAGES","radius":60}},
{"type":"Feature","geometry":{"type":"Point","coordinates":[2.3537153,48.8716134]},"properties":{"id":"passage-brady","name":"Passage Brady","set":"PASSAGES","radius":60}},
{"type":"Feature","geometry":{"type":"Point","coordinates":[2.3537015,48.8695428]},"properties":{"id":"passage-prado","name":"Passage du Prado","set":"PASSAGES","radius":60}},
{"type":"Feature","geometry":{"type":"Point","coordinates":[2.3391896,48.8716136]},"properties":{"id":"passage-princes","name":"Passage des Princes","set":"PASSAGES","radius":60}},
{"type":"Feature","geometry":{"type":"Point","coordinates":[2.3640849,48.8663543]},"properties":{"id":"passage-vendome","name":"Passage Vendôme","set":"PASSAGES","radius":60}},
{"type":"Feature","geometry":{"type":"Point","coordinates":[2.3238627,48.8730021]},"properties":{"id":"passage-puteaux","name":"Passage Puteaux","set":"PASSAGES","radius":60}},
{"type":"Feature","geometry":{"type":"Point","coordinates":[2.3228209,48.8697010]},"properties":{"id":"galerie-madeleine","name":"Galerie de la Madeleine","set":"PASSAGES","radius":60}},
{"type":"Feature","geometry":{"type":"Point","coordinates":[2.3530080,48.8642815]},"properties":{"id":"passage-ancre","name":"Passage de l'Ancre","set":"PASSAGES","radius":60}},
{"type":"Feature","geometry":{"type":"Point","coordinates":[2.2945008,48.8582603]},"properties":{"id":"tour-eiffel","name":"Tour Eiffel","set":"MONUMENTS","radius":100}},
{"type":"Feature","geometry":{"type":"Point","coordinates":[2.2950354,48.8737782]},"properties":{"id":"arc-de-triomphe","name":"Arc de Triomphe","set":"MONUMENTS","radius":150}},
{"type":"Feature","geometry":{"type":"Point","coordinates":[2.3498701,48.8529371]},"properties":{"id":"notre-dame","name":"Notre-Dame de Paris","set":"MONUMENTS","radius":120}},
{"type":"Feature","geometry":{"type":"Point","coordinates":[2.3430272,48.8867961]},"properties":{"id":"sacre-coeur","name":"Sacré-Cœur","set":"MONUMENTS","radius":100}},
{"type":"Feature","geometry":{"type":"Point","coordinates":[2.3460724,48.8461887]},"properties":{"id":"pantheon","name":"Panthéon","set":"MONUMENTS","radius":120}},
{"type":"Feature","geometry":{"type":"Point","coordinates":[2.3125541,48.8559525]},"properties":{"id":"invalides","name":"Les Invalides","set":"MONUMENTS","radius":150}},
{"type":"Feature","geometry":{"type":"Point","coordinates":[2.3358545,48.8610132]},"properties":{"id":"pyramide-louvre","name":"Pyramide du Louvre","set":"MONUMENTS","radius":75}},
{"type":"Feature","geometry":{"type":"Point","coordinates":[2.3319654,48.8714332]},"properties":{"id":"palais-garnier","name":"Palais Garnier","set":"MONUMENTS","radius":120}},
{"type":"Feature","geometry":{"type":"Point","coordinates":[2.3524395,48.8605235]},"properties":{"id":"centre-pompidou","name":"Centre Pompidou","set":"MONUMENTS","radius":100}},
{"type":"Feature","geometry":{"type":"Point","coordinates":[2.3691387,48.8531661]},"properties":{"id":"colonne-juillet","name":"Colonne de Juillet","set":"MONUMENTS","radius":120}},
{"type":"Feature","geometry":{"type":"Point","coordinates":[2.3211306,48.8654765]},"properties":{"id":"obelisque","name":"Obélisque de Louxor","set":"MONUMENTS","radius":150}},
{"type":"Feature","geometry":{"type":"Point","coordinates":[2.3450136,48.8553966]},"properties":{"id":"sainte-chapelle","name":"Sainte-Chapelle","set":"MONUMENTS","radius":100}},
{"type":"Feature","geometry":{"type":"Point","coordinates":[2.3460263,48.8559492]},"properties":{"id":"conciergerie","name":"Conciergerie","set":"MONUMENTS","radius":100}},
{"type":"Feature","geometry":{"type":"Point","coordinates":[2.3122667,48.8661514]},"properties":{"id":"grand-palais","name":"Grand Palais","set":"MONUMENTS","radius":130}},
{"type":"Feature","geometry":{"type":"Point","coordinates":[2.3157654,48.8667679]},"properties":{"id":"petit-palais","name":"Petit Palais","set":"MONUMENTS","radius":100}},
{"type":"Feature","geometry":{"type":"Point","coordinates":[2.3265259,48.8599188]},"properties":{"id":"musee-orsay","name":"Musée d'Orsay","set":"MONUMENTS","radius":100}},
{"type":"Feature","geometry":{"type":"Point","coordinates":[2.3219796,48.8421127]},"properties":{"id":"tour-montparnasse","name":"Tour Montparnasse","set":"MONUMENTS","radius":100}},
{"type":"Feature","geometry":{"type":"Point","coordinates":[2.3244655,48.8700280]},"properties":{"id":"madeleine","name":"La Madeleine","set":"MONUMENTS","radius":100}},
{"type":"Feature","geometry":{"type":"Point","coordinates":[2.3348657,48.8509825]},"properties":{"id":"saint-sulpice","name":"Saint-Sulpice","set":"MONUMENTS","radius":100}},
{"type":"Feature","geometry":{"type":"Point","coordinates":[2.3451777,48.8634023]},"properties":{"id":"saint-eustache","name":"Saint-Eustache","set":"MONUMENTS","radius":100}},
{"type":"Feature","geometry":{"type":"Point","coordinates":[2.3489178,48.8579983]},"properties":{"id":"tour-saint-jacques","name":"Tour Saint-Jacques","set":"MONUMENTS","radius":75}},
{"type":"Feature","geometry":{"type":"Point","coordinates":[2.3323564,48.8841094]},"properties":{"id":"moulin-rouge","name":"Moulin Rouge","set":"MONUMENTS","radius":60}},
{"type":"Feature","geometry":{"type":"Point","coordinates":[2.3371043,48.8568441]},"properties":{"id":"institut-de-france","name":"Institut de France","set":"MONUMENTS","radius":100}},
{"type":"Feature","geometry":{"type":"Point","coordinates":[2.3706641,48.8514912]},"properties":{"id":"opera-bastille","name":"Opéra Bastille","set":"MONUMENTS","radius":100}},
{"type":"Feature","geometry":{"type":"Point","coordinates":[2.3371422,48.8485533]},"properties":{"id":"palais-luxembourg","name":"Palais du Luxembourg","set":"MONUMENTS","radius":120}},
{"type":"Feature","geometry":{"type":"Point","coordinates":[2.3329082,48.8617276]},"properties":{"id":"arc-carrousel","name":"Arc de Triomphe du Carrousel","set":"MONUMENTS","radius":75}},
{"type":"Feature","geometry":{"type":"Point","coordinates":[2.3437213,48.8532077]},"properties":{"id":"fontaine-saint-michel","name":"Fontaine Saint-Michel","set":"MONUMENTS","radius":50}},
{"type":"Feature","geometry":{"type":"Point","coordinates":[2.3758389,48.8336355]},"properties":{"id":"bnf","name":"Bibliothèque François-Mitterrand","set":"MONUMENTS","radius":150}},
{"type":"Feature","geometry":{"type":"Point","coordinates":[2.3572225,48.8489231]},"properties":{"id":"institut-monde-arabe","name":"Institut du monde arabe","set":"MONUMENTS","radius":100}},
{"type":"Feature","geometry":{"type":"Point","coordinates":[2.3941891,48.8919138]},"properties":{"id":"philharmonie","name":"Philharmonie de Paris","set":"MONUMENTS","radius":120}},
{"type":"Feature","geometry":{"type":"Point","coordinates":[2.3363649,48.8467137]},"properties":{"id":"luxembourg","name":"Jardin du Luxembourg","set":"PARKS","radius":120}},
{"type":"Feature","geometry":{"type":"Point","coordinates":[2.3266855,48.8636681]},"properties":{"id":"tuileries","name":"Jardin des Tuileries","set":"PARKS","radius":120}},
{"type":"Feature","geometry":{"type":"Point","coordinates":[2.3838040,48.8795444]},"properties":{"id":"buttes-chaumont","name":"Parc des Buttes-Chaumont","set":"PARKS","radius":120}},
{"type":"Feature","geometry":{"type":"Point","coordinates":[2.3088916,48.8793714]},"properties":{"id":"monceau","name":"Parc Monceau","set":"PARKS","radius":100}},
{"type":"Feature","geometry":{"type":"Point","coordinates":[2.3380114,48.8222357]},"properties":{"id":"montsouris","name":"Parc Montsouris","set":"PARKS","radius":120}},
{"type":"Feature","geometry":{"type":"Point","coordinates":[2.3596915,48.8440393]},"properties":{"id":"jardin-des-plantes","name":"Jardin des Plantes","set":"PARKS","radius":120}},
{"type":"Feature","geometry":{"type":"Point","coordinates":[2.3893334,48.8934773]},"properties":{"id":"villette","name":"Parc de la Villette","set":"PARKS","radius":150}},
{"type":"Feature","geometry":{"type":"Point","coordinates":[2.2746384,48.8413065]},"properties":{"id":"andre-citroen","name":"Parc André-Citroën","set":"PARKS","radius":120}},
{"type":"Feature","geometry":{"type":"Point","coordinates":[2.3821188,48.8354139]},"properties":{"id":"bercy","name":"Parc de Bercy","set":"PARKS","radius":120}},
{"type":"Feature","geometry":{"type":"Point","coordinates":[2.2978311,48.8561630]},"properties":{"id":"champ-de-mars","name":"Champ-de-Mars","set":"PARKS","radius":120}},
{"type":"Feature","geometry":{"type":"Point","coordinates":[2.3378176,48.8650062]},"properties":{"id":"palais-royal","name":"Jardin du Palais-Royal","set":"PARKS","radius":75}},
{"type":"Feature","geometry":{"type":"Point","coordinates":[2.3849526,48.8715484]},"properties":{"id":"belleville","name":"Parc de Belleville","set":"PARKS","radius":100}},
{"type":"Feature","geometry":{"type":"Point","coordinates":[2.3402065,48.8574038]},"properties":{"id":"vert-galant","name":"Square du Vert-Galant","set":"PARKS","radius":50}},
{"type":"Feature","geometry":{"type":"Point","coordinates":[2.2998427,48.8314646]},"properties":{"id":"georges-brassens","name":"Parc Georges-Brassens","set":"PARKS","radius":100}},
{"type":"Feature","geometry":{"type":"Point","coordinates":[2.2474017,48.8703285]},"properties":{"id":"bagatelle","name":"Parc de Bagatelle","set":"PARKS","radius":150}},
{"type":"Feature","geometry":{"type":"Point","coordinates":[2.4444216,48.8372866]},"properties":{"id":"parc-floral","name":"Parc floral de Paris","set":"PARKS","radius":150}},
{"type":"Feature","geometry":{"type":"Point","coordinates":[2.2684699,48.8592641]},"properties":{"id":"ranelagh","name":"Jardin du Ranelagh","set":"PARKS","radius":100}},
{"type":"Feature","geometry":{"type":"Point","coordinates":[2.3136430,48.8911906]},"properties":{"id":"martin-luther-king","name":"Parc Martin-Luther-King","set":"PARKS","radius":120}},
{"type":"Feature","geometry":{"type":"Point","coordinates":[2.2526230,48.8467064]},"properties":{"id":"serres-auteuil","name":"Jardin des serres d'Auteuil","set":"PARKS","radius":100}},
{"type":"Feature","geometry":{"type":"Point","coordinates":[2.3163402,48.8874810]},"properties":{"id":"square-batignolles","name":"Square des Batignolles","set":"PARKS","radius":75}},
{"type":"Feature","geometry":{"type":"Point","coordinates":[2.2895140,48.8613091]},"properties":{"id":"trocadero","name":"Jardins du Trocadéro","set":"PARKS","radius":100}},
{"type":"Feature","geometry":{"type":"Point","coordinates":[2.3602842,48.8280720]},"properties":{"id":"choisy","name":"Parc de Choisy","set":"PARKS","radius":75}},
{"type":"Feature","geometry":{"type":"Point","coordinates":[2.3607531,48.8644582]},"properties":{"id":"square-temple","name":"Square du Temple","set":"PARKS","radius":75}},
{"type":"Feature","geometry":{"type":"Point","coordinates":[2.2529824,48.8649122]},"properties":{"id":"pre-catelan","name":"Pré Catelan","set":"PARKS","radius":120}},
{"type":"Feature","geometry":{"type":"Point","coordinates":[2.3552745,48.8184469]},"properties":{"id":"kellermann","name":"Parc Kellermann","set":"PARKS","radius":100}},
{"type":"Feature","geometry":{"type":"Point","coordinates":[2.3211860,48.8654898]},"properties":{"id":"concorde","name":"Place de la Concorde","set":"SQUARES","radius":150}},
{"type":"Feature","geometry":{"type":"Point","coordinates":[2.3655346,48.8556308]},"properties":{"id":"vosges","name":"Place des Vosges","set":"SQUARES","radius":75}},
{"type":"Feature","geometry":{"type":"Point","coordinates":[2.3294385,48.8674726]},"properties":{"id":"vendome","name":"Place Vendôme","set":"SQUARES","radius":75}},
{"type":"Feature","geometry":{"type":"Point","coordinates":[2.3687377,48.8526954]},"properties":{"id":"bastille","name":"Place de la Bastille","set":"SQUARES","radius":120}},
{"type":"Feature","geometry":{"type":"Point","coordinates":[2.3639876,48.8675412]},"properties":{"id":"republique","name":"Place de la République","set":"SQUARES","radius":100}},
{"type":"Feature","geometry":{"type":"Point","coordinates":[2.3958959,48.8483863]},"properties":{"id":"nation","name":"Place de la Nation","set":"SQUARES","radius":130}},
{"type":"Feature","geometry":{"type":"Point","coordinates":[2.2950367,48.8737781]},"properties":{"id":"etoile","name":"Place Charles-de-Gaulle","set":"SQUARES","radius":150}},
{"type":"Feature","geometry":{"type":"Point","coordinates":[2.3555468,48.8322280]},"properties":{"id":"italie","name":"Place d'Italie","set":"SQUARES","radius":110}},
{"type":"Feature","geometry":{"type":"Point","coordinates":[2.2871954,48.8628766]},"properties":{"id":"trocadero-place","name":"Place du Trocadéro","set":"SQUARES","radius":120}},
{"type":"Feature","geometry":{"type":"Point","coordinates":[2.3411756,48.8657507]},"properties":{"id":"victoires","name":"Place des Victoires","set":"SQUARES","radius":60}},
{"type":"Feature","geometry":{"type":"Point","coordinates":[2.3494222,48.8444750]},"properties":{"id":"contrescarpe","name":"Place de la Contrescarpe","set":"SQUARES","radius":50}},
{"type":"Feature","geometry":{"type":"Point","coordinates":[2.3406466,48.8865625]},"properties":{"id":"tertre","name":"Place du Tertre","set":"SQUARES","radius":50}},
{"type":"Feature","geometry":{"type":"Point","coordinates":[2.3437635,48.8533333]},"properties":{"id":"saint-michel","name":"Place Saint-Michel","set":"SQUARES","radius":50}},
{"type":"Feature","geometry":{"type":"Point","coordinates":[2.3423704,48.8565272]},"properties":{"id":"dauphine","name":"Place Dauphine","set":"SQUARES","radius":60}},
{"type":"Feature","geometry":{"type":"Point","coordinates":[2.3384934,48.8843986]},"properties":{"id":"abbesses","name":"Place des Abbesses","set":"SQUARES","radius":50}},
{"type":"Feature","geometry":{"type":"Point","coordinates":[2.3569777,48.8809877]},"properties":{"id":"gare-du-nord","name":"Gare du Nord","set":"STATIONS","radius":120}},
{"type":"Feature","geometry":{"type":"Point","coordinates":[2.3594905,48.8770979]},"properties":{"id":"gare-de-l-est","name":"Gare de l'Est","set":"STATIONS","radius":120}},
{"type":"Feature","geometry":{"type":"Point","coordinates":[2.3737743,48.8446832]},"properties":{"id":"gare-de-lyon","name":"Gare de Lyon","set":"STATIONS","radius":120}},
{"type":"Feature","geometry":{"type":"Point","coordinates":[2.3649897,48.8424013]},"properties":{"id":"gare-austerlitz","name":"Gare d'Austerlitz","set":"STATIONS","radius":120}},
{"type":"Feature","geometry":{"type":"Point","coordinates":[2.3191085,48.8400624]},"properties":{"id":"gare-montparnasse","name":"Gare Montparnasse","set":"STATIONS","radius":120}},
{"type":"Feature","geometry":{"type":"Point","coordinates":[2.3252374,48.8765300]},"properties":{"id":"gare-saint-lazare","name":"Gare Saint-Lazare","set":"STATIONS","radius":120}},
{"type":"Feature","geometry":{"type":"Point","coordinates":[2.3828490,48.8391964]},"properties":{"id":"gare-bercy","name":"Gare de Bercy","set":"STATIONS","radius":100}}
]}
