{"type":"FeatureCollection","features":[
{"type":"Feature","geometry":{"type":"Point","coordinates":[2.3385538,48.8603679]},"properties":{"id":"cour-carree","name":"Cour Carrée du Louvre","set":"TREASURES","radius":70,"hint":"Une cour parfaitement carrée, au cœur du plus grand palais de Paris."}},
{"type":"Feature","geometry":{"type":"Point","coordinates":[2.3480233,48.8606368]},"properties":{"id":"fontaine-innocents","name":"Fontaine des Innocents","set":"TREASURES","radius":50,"hint":"La plus ancienne fontaine monumentale de Paris, sur un ancien cimetière."}},
{"type":"Feature","geometry":{"type":"Point","coordinates":[2.3370683,48.8636002]},"properties":{"id":"colonnes-buren","name":"Colonnes de Buren","set":"TREASURES","radius":60,"hint":"Des colonnes rayées noir et blanc, de toutes les hauteurs, dans une cour royale."}},
{"type":"Feature","geometry":{"type":"Point","coordinates":[2.3286485,48.8677015]},"properties":{"id":"metre-vendome","name":"Mètre étalon de la place Vendôme","set":"TREASURES","radius":50,"hint":"Un des deux derniers mètres de marbre posés sous la Révolution pour apprendre la nouvelle mesure."}},
{"type":"Feature","geometry":{"type":"Point","coordinates":[2.3343056,48.8690695]},"properties":{"id":"fontaine-gaillon","name":"Fontaine Gaillon","set":"TREASURES","radius":50,"hint":"Une petite fontaine d'angle, sur une place qui porte son nom."}},
{"type":"Feature","geometry":{"type":"Point","coordinates":[2.3387305,48.8670856]},"properties":{"id":"jardin-vivienne","name":"Jardin Vivienne","set":"TREASURES","radius":60,"hint":"Un jardin caché derrière la Bibliothèque nationale."}},
{"type":"Feature","geometry":{"type":"Point","coordinates":[2.3472700,48.8705900]},"properties":{"id":"grand-rex","name":"Le Grand Rex","set":"TREASURES","radius":50,"hint":"Un cinéma Art déco au plafond étoilé, le plus grand d'Europe."}},
{"type":"Feature","geometry":{"type":"Point","coordinates":[2.3506599,48.8693971]},"properties":{"id":"rue-des-degres","name":"Rue des Degrés","set":"TREASURES","radius":40,"hint":"La rue la plus courte de Paris : quelques mètres, et ce ne sont que des marches."}},
{"type":"Feature","geometry":{"type":"Point","coordinates":[2.3563647,48.8688385]},"properties":{"id":"porte-saint-martin","name":"Porte Saint-Martin","set":"TREASURES","radius":50,"hint":"Un arc de triomphe pour Louis XIV, là où s'ouvrait une porte de la ville."}},
{"type":"Feature","geometry":{"type":"Point","coordinates":[2.3619723,48.8627768]},"properties":{"id":"marche-enfants-rouges","name":"Marché des Enfants-Rouges","set":"TREASURES","radius":50,"hint":"Le plus vieux marché couvert de Paris, au nom d'un orphelinat."}},
{"type":"Feature","geometry":{"type":"Point","coordinates":[2.3576038,48.8603506]},"properties":{"id":"hotel-soubise","name":"Hôtel de Soubise","set":"TREASURES","radius":70,"hint":"Une cour d'honneur à colonnade, derrière un portail du Marais."}},
{"type":"Feature","geometry":{"type":"Point","coordinates":[2.3528216,48.8636539]},"properties":{"id":"maison-flamel","name":"Maison de Nicolas Flamel","set":"TREASURES","radius":50,"hint":"La plus vieille maison de Paris, celle d'un alchimiste légendaire."}},
{"type":"Feature","geometry":{"type":"Point","coordinates":[2.3514853,48.8594818]},"properties":{"id":"fontaine-stravinsky","name":"Fontaine Stravinsky","set":"TREASURES","radius":60,"hint":"Des sculptures colorées qui tournent et crachent de l'eau, au pied d'un musée-usine."}},
{"type":"Feature","geometry":{"type":"Point","coordinates":[2.3588700,48.8535200]},"properties":{"id":"hotel-de-sens","name":"Hôtel de Sens","set":"TREASURES","radius":50,"hint":"Un hôtel médiéval avec un boulet de canon encore planté dans sa façade."}},
{"type":"Feature","geometry":{"type":"Point","coordinates":[2.3618562,48.8513526]},"properties":{"id":"square-henri-galli","name":"Square Henri-Galli","set":"TREASURES","radius":50,"hint":"Les pierres d'une célèbre forteresse, remontées au bord de l'eau."}},
{"type":"Feature","geometry":{"type":"Point","coordinates":[2.3487885,48.8534015]},"properties":{"id":"point-zero","name":"Point zéro des routes de France","set":"TREASURES","radius":40,"hint":"Une étoile de bronze au sol : c'est d'ici qu'on mesure toutes les distances de France."}},
{"type":"Feature","geometry":{"type":"Point","coordinates":[2.3532221,48.8446039]},"properties":{"id":"arenes-lutece","name":"Arènes de Lutèce","set":"TREASURES","radius":70,"hint":"Un amphithéâtre romain de 2 000 ans, caché derrière des immeubles."}},
{"type":"Feature","geometry":{"type":"Point","coordinates":[2.3551205,48.8420708]},"properties":{"id":"grande-mosquee","name":"Grande Mosquée de Paris","set":"TREASURES","radius":60,"hint":"Un patio andalou et un minaret, au bord d'un jardin botanique."}},
{"type":"Feature","geometry":{"type":"Point","coordinates":[2.3418833,48.8405260]},"properties":{"id":"val-de-grace","name":"Église du Val-de-Grâce","set":"TREASURES","radius":70,"hint":"Un dôme baroque né du vœu d'une reine qui voulait un fils."}},
{"type":"Feature","geometry":{"type":"Point","coordinates":[2.3472800,48.8521900]},"properties":{"id":"plus-vieil-arbre","name":"Le plus vieil arbre de Paris","set":"TREASURES","radius":40,"hint":"Un arbre planté en 1601, qui tient debout grâce à des béquilles de béton."}},
{"type":"Feature","geometry":{"type":"Point","coordinates":[2.3389230,48.8535550]},"properties":{"id":"cour-commerce-saint-andre","name":"Cour du Commerce-Saint-André","set":"TREASURES","radius":50,"hint":"Un passage pavé où l'on aurait essayé la guillotine sur des moutons."}},
{"type":"Feature","geometry":{"type":"Point","coordinates":[2.3392900,48.8480500]},"properties":{"id":"fontaine-medicis","name":"Fontaine Médicis","set":"TREASURES","radius":50,"hint":"Une fontaine-grotte au bout d'un long bassin, dans un jardin de reine."}},
{"type":"Feature","geometry":{"type":"Point","coordinates":[2.3298100,48.8436500]},"properties":{"id":"immeuble-sauvage","name":"Immeuble à gradins de la rue Vavin","set":"TREASURES","radius":50,"hint":"Un immeuble blanc en escalier, couvert de carreaux comme une salle de bains."}},
{"type":"Feature","geometry":{"type":"Point","coordinates":[2.3359440,48.8545738]},"properties":{"id":"rue-furstemberg","name":"Place de Furstemberg","set":"TREASURES","radius":50,"hint":"Une minuscule place ronde avec des paulownias et un réverbère à cinq globes."}},
{"type":"Feature","geometry":{"type":"Point","coordinates":[2.3251122,48.8546899]},"properties":{"id":"fontaine-quatre-saisons","name":"Fontaine des Quatre-Saisons","set":"TREASURES","radius":50,"hint":"Une fontaine monumentale coincée dans une rue étroite, dont on moquait le filet d'eau."}},
{"type":"Feature","geometry":{"type":"Point","coordinates":[2.3162200,48.8547500]},"properties":{"id":"jardin-rodin","name":"Jardin du musée Rodin","set":"TREASURES","radius":80,"hint":"Un penseur de bronze médite dans le jardin d'un hôtel particulier."}},
{"type":"Feature","geometry":{"type":"Point","coordinates":[2.3163937,48.8516333]},"properties":{"id":"la-pagode","name":"La Pagode","set":"TREASURES","radius":50,"hint":"Une vraie pagode japonaise, offerte par amour, devenue cinéma."}},
{"type":"Feature","geometry":{"type":"Point","coordinates":[2.3010304,48.8591155]},"properties":{"id":"immeuble-lavirotte","name":"Immeuble Lavirotte","set":"TREASURES","radius":40,"hint":"La porte d'immeuble la plus extravagante de Paris, Art nouveau."}},
{"type":"Feature","geometry":{"type":"Point","coordinates":[2.3112312,48.8653714]},"properties":{"id":"jardin-nouvelle-france","name":"Jardin de la Nouvelle-France","set":"TREASURES","radius":60,"hint":"Une cascade et un petit ravin cachés en contrebas des Champs-Élysées."}},
{"type":"Feature","geometry":{"type":"Point","coordinates":[2.3019923,48.8776180]},"properties":{"id":"cathedrale-nevsky","name":"Cathédrale Saint-Alexandre-Nevsky","set":"TREASURES","radius":60,"hint":"Des bulbes dorés d'église russe, en plein 8e arrondissement."}},
{"type":"Feature","geometry":{"type":"Point","coordinates":[2.3228431,48.8691910]},"properties":{"id":"village-royal","name":"Village Royal","set":"TREASURES","radius":50,"hint":"Une ruelle pavée secrète, entre la Madeleine et la Concorde."}},
{"type":"Feature","geometry":{"type":"Point","coordinates":[2.3233676,48.8789978]},"properties":{"id":"place-europe","name":"Place de l'Europe – Simone-Veil","set":"TREASURES","radius":60,"hint":"Un pont en étoile au-dessus des voies ferrées, peint par Caillebotte."}},
{"type":"Feature","geometry":{"type":"Point","coordinates":[2.3335207,48.8813424]},"properties":{"id":"vie-romantique","name":"Musée de la Vie romantique","set":"TREASURES","radius":50,"hint":"Une allée pavée, une maison d'artiste et un jardin de roses."}},
{"type":"Feature","geometry":{"type":"Point","coordinates":[2.3318168,48.8734030]},"properties":{"id":"galeries-lafayette-terrasse","name":"Terrasse des Galeries Lafayette","set":"TREASURES","radius":60,"hint":"Un toit gratuit avec vue sur l'Opéra, au-dessus d'une coupole de vitraux."}},
{"type":"Feature","geometry":{"type":"Point","coordinates":[2.3432312,48.8720015]},"properties":{"id":"cite-bergere","name":"Cité Bergère","set":"TREASURES","radius":40,"hint":"Une impasse d'hôtels aux marquises de fer, où vécut le poète Heinrich Heine."}},
{"type":"Feature","geometry":{"type":"Point","coordinates":[2.3413200,48.8820900]},"properties":{"id":"phono-museum","name":"Phono Museum","set":"TREASURES","radius":40,"hint":"Des phonographes et des gramophones qui chantent encore, près de Pigalle."}},
{"type":"Feature","geometry":{"type":"Point","coordinates":[2.3519205,48.8789795]},"properties":{"id":"saint-vincent-de-paul","name":"Église Saint-Vincent-de-Paul","set":"TREASURES","radius":60,"hint":"Une église perchée en haut d'un grand escalier en fer à cheval."}},
{"type":"Feature","geometry":{"type":"Point","coordinates":[2.3539900,48.8722600]},"properties":{"id":"cour-petites-ecuries","name":"Cour des Petites-Écuries","set":"TREASURES","radius":50,"hint":"Une cour pavée d'anciennes écuries royales, devenue rue de restaurants."}},
{"type":"Feature","geometry":{"type":"Point","coordinates":[2.3582414,48.8700561]},"properties":{"id":"cite-riverin","name":"Cité Riverin","set":"TREASURES","radius":40,"hint":"Une petite rue d'artisans fermée par des grilles, à deux pas des grands boulevards."}},
{"type":"Feature","geometry":{"type":"Point","coordinates":[2.3709652,48.8702412]},"properties":{"id":"hopital-saint-louis","name":"Cour de l'hôpital Saint-Louis","set":"TREASURES","radius":70,"hint":"Une cour carrée de brique et de pierre, bâtie par Henri IV contre la peste."}},
{"type":"Feature","geometry":{"type":"Point","coordinates":[2.3675917,48.8635364]},"properties":{"id":"cirque-hiver","name":"Cirque d'Hiver","set":"TREASURES","radius":50,"hint":"Un cirque en dur à vingt côtés, là depuis Napoléon III."}},
{"type":"Feature","geometry":{"type":"Point","coordinates":[2.3776755,48.8629914]},"properties":{"id":"passage-saint-ambroise","name":"Passage Saint-Ambroise","set":"TREASURES","radius":40,"hint":"Un passage verdoyant et paisible, à l'ombre d'une église."}},
{"type":"Feature","geometry":{"type":"Point","coordinates":[2.3704563,48.8543205]},"properties":{"id":"cour-damoye","name":"Cour Damoye","set":"TREASURES","radius":40,"hint":"Une cour pavée d'artisans, à quelques pas de la Bastille."}},
{"type":"Feature","geometry":{"type":"Point","coordinates":[2.3927439,48.8495741]},"properties":{"id":"immeubles-industriels","name":"Rue des Immeubles-Industriels","set":"TREASURES","radius":50,"hint":"Une rue entière d'immeubles identiques, faits pour loger artisans et machines."}},
{"type":"Feature","geometry":{"type":"Point","coordinates":[2.4093810,48.8352761]},"properties":{"id":"porte-doree","name":"Palais de la Porte Dorée","set":"TREASURES","radius":70,"hint":"Une façade entièrement sculptée, et un aquarium tropical au sous-sol."}},
{"type":"Feature","geometry":{"type":"Point","coordinates":[2.4003970,48.8440048]},"properties":{"id":"cimetiere-picpus","name":"Cimetière de Picpus","set":"TREASURES","radius":60,"hint":"Un cimetière privé où flotte un drapeau américain sur la tombe d'un héros."}},
{"type":"Feature","geometry":{"type":"Point","coordinates":[2.3893382,48.8327663]},"properties":{"id":"pavillons-bercy","name":"Pavillons de Bercy","set":"TREASURES","radius":60,"hint":"D'anciens chais à vin qui abritent des manèges d'autrefois."}},
{"type":"Feature","geometry":{"type":"Point","coordinates":[2.3708661,48.8468825]},"properties":{"id":"rue-cremieux","name":"Rue Crémieux","set":"TREASURES","radius":50,"hint":"Des maisons couleur arc-en-ciel, dans une rue sans voitures."}},
{"type":"Feature","geometry":{"type":"Point","coordinates":[2.3641414,48.8389393]},"properties":{"id":"chapelle-salpetriere","name":"Chapelle de la Salpêtrière","set":"TREASURES","radius":70,"hint":"Une immense chapelle à dôme, au milieu d'un hôpital."}},
{"type":"Feature","geometry":{"type":"Point","coordinates":[2.3788969,48.8312112]},"properties":{"id":"les-frigos","name":"Les Frigos","set":"TREASURES","radius":50,"hint":"Un ancien entrepôt frigorifique couvert de graffitis, devenu ateliers d'artistes."}},
{"type":"Feature","geometry":{"type":"Point","coordinates":[2.3448195,48.8227030]},"properties":{"id":"cite-florale","name":"Cité Florale","set":"TREASURES","radius":50,"hint":"Des maisons à jardinets, dans des rues aux noms de fleurs."}},
{"type":"Feature","geometry":{"type":"Point","coordinates":[2.3528661,48.8350372]},"properties":{"id":"gobelins","name":"Manufacture des Gobelins","set":"TREASURES","radius":60,"hint":"Des tapisseries tissées ici depuis Louis XIV, et toujours aujourd'hui."}},
{"type":"Feature","geometry":{"type":"Point","coordinates":[2.3324661,48.8343320]},"properties":{"id":"lion-belfort","name":"Lion de Belfort","set":"TREASURES","radius":50,"hint":"Un lion de bronze couché au milieu d'une grande place."}},
{"type":"Feature","geometry":{"type":"Point","coordinates":[2.3377100,48.8261800]},"properties":{"id":"aqueduc-lutece","name":"Aqueduc de Lutèce","set":"TREASURES","radius":50,"hint":"Des vestiges de l'aqueduc romain qui apportait l'eau à Lutèce."}},
{"type":"Feature","geometry":{"type":"Point","coordinates":[2.3322925,48.8337439]},"properties":{"id":"catacombes","name":"Entrée des Catacombes","set":"TREASURES","radius":50,"hint":"L'entrée d'un ossuaire géant, sous la ville."}},
{"type":"Feature","geometry":{"type":"Point","coordinates":[2.3196372,48.8320846]},"properties":{"id":"rue-thermopyles","name":"Rue des Thermopyles","set":"TREASURES","radius":50,"hint":"Une ruelle pavée et fleurie, au nom d'une bataille antique."}},
{"type":"Feature","geometry":{"type":"Point","coordinates":[2.2968836,48.8320428]},"properties":{"id":"la-ruche","name":"La Ruche","set":"TREASURES","radius":60,"hint":"Une rotonde d'ateliers pour artistes pauvres, récupérée d'une exposition universelle."}},
{"type":"Feature","geometry":{"type":"Point","coordinates":[2.3189805,48.8398756]},"properties":{"id":"jardin-atlantique","name":"Jardin Atlantique","set":"TREASURES","radius":70,"hint":"Un jardin suspendu posé sur les quais d'une gare."}},
{"type":"Feature","geometry":{"type":"Point","coordinates":[2.2992782,48.8511319]},"properties":{"id":"village-suisse","name":"Village Suisse","set":"TREASURES","radius":60,"hint":"Un village d'antiquaires, héritier d'une exposition universelle."}},
{"type":"Feature","geometry":{"type":"Point","coordinates":[2.2797012,48.8500236]},"properties":{"id":"statue-liberte","name":"Statue de la Liberté","set":"TREASURES","radius":60,"hint":"La petite sœur d'une célèbre statue new-yorkaise, au bout d'une île étroite."}},
{"type":"Feature","geometry":{"type":"Point","coordinates":[2.2662063,48.8547907]},"properties":{"id":"rue-mallet-stevens","name":"Rue Mallet-Stevens","set":"TREASURES","radius":50,"hint":"Une rue entière de villas cubistes, dessinée par un seul architecte."}},
{"type":"Feature","geometry":{"type":"Point","coordinates":[2.2808844,48.8552057]},"properties":{"id":"maison-balzac","name":"Maison de Balzac","set":"TREASURES","radius":50,"hint":"La maison d'un romancier qui avait deux sorties pour fuir ses créanciers."}},
{"type":"Feature","geometry":{"type":"Point","coordinates":[2.2633200,48.8766500]},"properties":{"id":"fondation-vuitton","name":"Fondation Louis Vuitton","set":"TREASURES","radius":80,"hint":"Des voiles de verre gonflées par le vent, posées au bord du bois."}},
{"type":"Feature","geometry":{"type":"Point","coordinates":[2.3008761,48.8641848]},"properties":{"id":"flamme-liberte","name":"Flamme de la Liberté","set":"TREASURES","radius":50,"hint":"Une flamme dorée au-dessus d'un tunnel célèbre, devenue lieu de mémoire."}},
{"type":"Feature","geometry":{"type":"Point","coordinates":[2.2962304,48.8787046]},"properties":{"id":"rue-poncelet","name":"Rue Poncelet","set":"TREASURES","radius":50,"hint":"Une rue de marché piétonne et gourmande, près d'une grande place en étoile."}},
{"type":"Feature","geometry":{"type":"Point","coordinates":[2.3105214,48.8817972]},"properties":{"id":"hotel-gaillard","name":"Hôtel Gaillard","set":"TREASURES","radius":60,"hint":"Un château néogothique de briques, construit pour un banquier."}},
{"type":"Feature","geometry":{"type":"Point","coordinates":[2.3178565,48.8867918]},"properties":{"id":"sainte-marie-batignolles","name":"Sainte-Marie-des-Batignolles","set":"TREASURES","radius":50,"hint":"Une église qui ressemble à un temple grec, face à un square."}},
{"type":"Feature","geometry":{"type":"Point","coordinates":[2.3203341,48.8926258]},"properties":{"id":"cite-des-fleurs","name":"Cité des Fleurs","set":"TREASURES","radius":50,"hint":"Une allée privée d'hôtels particuliers, chacun avec son jardin fleuri."}},
{"type":"Feature","geometry":{"type":"Point","coordinates":[2.3380698,48.8875399]},"properties":{"id":"passe-muraille","name":"Le Passe-Muraille","set":"TREASURES","radius":40,"hint":"Un homme de bronze coincé dans un mur, sorti d'une nouvelle de Marcel Aymé."}},
{"type":"Feature","geometry":{"type":"Point","coordinates":[2.3385100,48.8848100]},"properties":{"id":"mur-je-taime","name":"Mur des je t'aime","set":"TREASURES","radius":40,"hint":"Un mur où « je t'aime » est écrit dans plus de 250 langues."}},
{"type":"Feature","geometry":{"type":"Point","coordinates":[2.3549746,48.8860532]},"properties":{"id":"saint-bernard-chapelle","name":"Saint-Bernard-de-la-Chapelle","set":"TREASURES","radius":60,"hint":"Une église néogothique au cœur de la Goutte-d'Or."}},
{"type":"Feature","geometry":{"type":"Point","coordinates":[2.3662081,48.8876495]},"properties":{"id":"jardins-eole","name":"Jardins d'Éole","set":"TREASURES","radius":70,"hint":"Un grand jardin créé sur d'anciennes voies ferrées."}},
{"type":"Feature","geometry":{"type":"Point","coordinates":[2.3794062,48.8883703]},"properties":{"id":"pont-levant-crimee","name":"Pont levant de la rue de Crimée","set":"TREASURES","radius":50,"hint":"Le dernier pont de Paris qui se lève pour laisser passer les bateaux."}},
{"type":"Feature","geometry":{"type":"Point","coordinates":[2.3918000,48.8933000]},"properties":{"id":"bicyclette-ensevelie","name":"La Bicyclette ensevelie","set":"TREASURES","radius":60,"hint":"Une bicyclette géante enterrée dans une pelouse ; seuls quelques morceaux dépassent."}},
{"type":"Feature","geometry":{"type":"Point","coordinates":[2.3942049,48.8798564]},"properties":{"id":"la-mouzaia","name":"La Mouzaïa","set":"TREASURES","radius":50,"hint":"Des villas fleuries bâties sur d'anciennes carrières, trop fragiles pour les immeubles."}},
{"type":"Feature","geometry":{"type":"Point","coordinates":[2.3756397,48.8772621]},"properties":{"id":"butte-bergeyre","name":"Butte-Bergeyre","set":"TREASURES","radius":60,"hint":"Un village perché, avec des vignes et une vue sur Montmartre, qu'on atteint par des escaliers."}},
{"type":"Feature","geometry":{"type":"Point","coordinates":[2.3784991,48.8716802]},"properties":{"id":"rue-denoyez","name":"Rue Dénoyez","set":"TREASURES","radius":50,"hint":"Une rue entièrement couverte de graffitis, à Belleville."}},
{"type":"Feature","geometry":{"type":"Point","coordinates":[2.4025194,48.8744219]},"properties":{"id":"villa-des-otages","name":"Villa des Otages","set":"TREASURES","radius":50,"hint":"Une impasse fleurie au nom d'un épisode tragique de la Commune."}},
{"type":"Feature","geometry":{"type":"Point","coordinates":[2.4000825,48.8596793]},"properties":{"id":"mur-federes","name":"Mur des Fédérés","set":"TREASURES","radius":60,"hint":"Un mur de cimetière où furent fusillés les derniers combattants de la Commune."}},
{"type":"Feature","geometry":{"type":"Point","coordinates":[2.4076400,48.8535100]},"properties":{"id":"gare-avron","name":"Ancienne gare d'Avron","set":"TREASURES","radius":50,"hint":"Une gare abandonnée de la Petite Ceinture, rendue aux habitants."}}
]}
